[{"OBJECT_NAME":"ISS OBJECT XT","OBJECT_ID":"1998-067XT","EPOCH":"2026-04-05T19:32:05.160768","MEAN_MOTION":15.81038991,"ECCENTRICITY":0.0007627,"INCLINATION":51.6217,"RA_OF_ASC_NODE":286.2314,"ARG_OF_PERICENTER":257.9679,"MEAN_ANOMALY":102.0469,"EPHEMERIS_TYPE":0,"CLASSIFICATION_TYPE":"U","NORAD_CAT_ID":66907,"ELEMENT_SET_NO":999,"REV_AT_EPOCH":1945,"BSTAR":0.0015655,"MEAN_MOTION_DOT":0.00323618,"MEAN_MOTION_DDOT":0},{"OBJECT_NAME":"ISS OBJECT XU","OBJECT_ID":"1998-067XU","EPOCH":"2026-04-05T19:24:22.596768","MEAN_MOTION":15.81429806,"ECCENTRICITY":0.0007804,"INCLINATION":51.6224,"RA_OF_ASC_NODE":286.192,"ARG_OF_PERICENTER":256.8765,"MEAN_ANOMALY":103.1367,"EPHEMERIS_TYPE":0,"CLASSIFICATION_TYPE":"U","NORAD_CAT_ID":66908,"ELEMENT_SET_NO":999,"REV_AT_EPOCH":1945,"BSTAR":0.0015091,"MEAN_MOTION_DOT":0.00317413,"MEAN_MOTION_DDOT":0},{"OBJECT_NAME":"SILVERSAT","OBJECT_ID":"1998-067XV","EPOCH":"2026-04-05T17:32:03.770016","MEAN_MOTION":15.89127269,"ECCENTRICITY":0.000944,"INCLINATION":51.618,"RA_OF_ASC_NODE":284.8979,"ARG_OF_PERICENTER":264.4078,"MEAN_ANOMALY":95.5851,"EPHEMERIS_TYPE":0,"CLASSIFICATION_TYPE":"U","NORAD_CAT_ID":66909,"ELEMENT_SET_NO":999,"REV_AT_EPOCH":1946,"BSTAR":0.0017462,"MEAN_MOTION_DOT":0.00511697,"MEAN_MOTION_DDOT":0.00010942},{"OBJECT_NAME":"ISS OBJECT XW","OBJECT_ID":"1998-067XW","EPOCH":"2026-04-05T18:24:10.108224","MEAN_MOTION":15.78843649,"ECCENTRICITY":0.0007677,"INCLINATION":51.6196,"RA_OF_ASC_NODE":286.6599,"ARG_OF_PERICENTER":253.02,"MEAN_ANOMALY":106.9959,"EPHEMERIS_TYPE":0,"CLASSIFICATION_TYPE":"U","NORAD_CAT_ID":66910,"ELEMENT_SET_NO":999,"REV_AT_EPOCH":1944,"BSTAR":0.0014295,"MEAN_MOTION_DOT":0.0026546,"MEAN_MOTION_DDOT":0},{"OBJECT_NAME":"ISS OBJECT XX","OBJECT_ID":"1998-067XX","EPOCH":"2026-04-05T18:05:22.152768","MEAN_MOTION":16.01632842,"ECCENTRICITY":0.0012061,"INCLINATION":51.6135,"RA_OF_ASC_NODE":282.7499,"ARG_OF_PERICENTER":272.1994,"MEAN_ANOMALY":87.7635,"EPHEMERIS_TYPE":0,"CLASSIFICATION_TYPE":"U","NORAD_CAT_ID":66911,"ELEMENT_SET_NO":999,"REV_AT_EPOCH":1948,"BSTAR":0.0021131,"MEAN_MOTION_DOT":0.01217551,"MEAN_MOTION_DDOT":0.00079992},{"OBJECT_NAME":"ISS OBJECT XY","OBJECT_ID":"1998-067XY","EPOCH":"2026-04-05T19:43:11.965728","MEAN_MOTION":15.69823635,"ECCENTRICITY":0.000529,"INCLINATION":51.6244,"RA_OF_ASC_NODE":289.3172,"ARG_OF_PERICENTER":250.7234,"MEAN_ANOMALY":109.3192,"EPHEMERIS_TYPE":0,"CLASSIFICATION_TYPE":"U","NORAD_CAT_ID":66912,"ELEMENT_SET_NO":999,"REV_AT_EPOCH":1940,"BSTAR":0.0011568,"MEAN_MOTION_DOT":0.0014297,"MEAN_MOTION_DDOT":0},{"OBJECT_NAME":"KNACKSAT-2","OBJECT_ID":"1998-067XZ","EPOCH":"2026-04-05T19:39:15.499296","MEAN_MOTION":15.54247426,"ECCENTRICITY":0.001084,"INCLINATION":51.6317,"RA_OF_ASC_NODE":296.8195,"ARG_OF_PERICENTER":286.1763,"MEAN_ANOMALY":73.8034,"EPHEMERIS_TYPE":0,"CLASSIFICATION_TYPE":"U","NORAD_CAT_ID":67683,"ELEMENT_SET_NO":999,"REV_AT_EPOCH":900,"BSTAR":0.00071168,"MEAN_MOTION_DOT":0.00047225,"MEAN_MOTION_DDOT":0},{"OBJECT_NAME":"CORAL","OBJECT_ID":"1998-067YA","EPOCH":"2026-04-05T17:27:30.822048","MEAN_MOTION":15.59362518,"ECCENTRICITY":0.0013728,"INCLINATION":51.6287,"RA_OF_ASC_NODE":296.2079,"ARG_OF_PERICENTER":276.4839,"MEAN_ANOMALY":83.4591,"EPHEMERIS_TYPE":0,"CLASSIFICATION_TYPE":"U","NORAD_CAT_ID":67684,"ELEMENT_SET_NO":999,"REV_AT_EPOCH":900,"BSTAR":0.0012984,"MEAN_MOTION_DOT":0.00105757,"MEAN_MOTION_DDOT":0},{"OBJECT_NAME":"GXIBA-1","OBJECT_ID":"1998-067YB","EPOCH":"2026-04-05T19:20:29.030784","MEAN_MOTION":15.54892116,"ECCENTRICITY":0.0012597,"INCLINATION":51.6302,"RA_OF_ASC_NODE":296.7324,"ARG_OF_PERICENTER":283.2994,"MEAN_ANOMALY":76.6592,"EPHEMERIS_TYPE":0,"CLASSIFICATION_TYPE":"U","NORAD_CAT_ID":67685,"ELEMENT_SET_NO":999,"REV_AT_EPOCH":900,"BSTAR":0.00078016,"MEAN_MOTION_DOT":0.00053148,"MEAN_MOTION_DDOT":0},{"OBJECT_NAME":"UITMSAT-2","OBJECT_ID":"1998-067YC","EPOCH":"2026-04-05T20:24:06.633792","MEAN_MOTION":15.56068312,"ECCENTRICITY":0.0009711,"INCLINATION":51.6301,"RA_OF_ASC_NODE":296.2798,"ARG_OF_PERICENTER":258.0016,"MEAN_ANOMALY":101.9887,"EPHEMERIS_TYPE":0,"CLASSIFICATION_TYPE":"U","NORAD_CAT_ID":67686,"ELEMENT_SET_NO":999,"REV_AT_EPOCH":901,"BSTAR":0.00085196,"MEAN_MOTION_DOT":0.0006065,"MEAN_MOTION_DDOT":0},{"OBJECT_NAME":"HMU-SAT2","OBJECT_ID":"1998-067YD","EPOCH":"2026-04-05T19:29:32.123040","MEAN_MOTION":15.54611273,"ECCENTRICITY":0.0009202,"INCLINATION":51.6312,"RA_OF_ASC_NODE":296.778,"ARG_OF_PERICENTER":261.268,"MEAN_ANOMALY":98.7269,"EPHEMERIS_TYPE":0,"CLASSIFICATION_TYPE":"U","NORAD_CAT_ID":67687,"ELEMENT_SET_NO":999,"REV_AT_EPOCH":892,"BSTAR":0.00077513,"MEAN_MOTION_DOT":0.00052169,"MEAN_MOTION_DDOT":0},{"OBJECT_NAME":"LEOPARD","OBJECT_ID":"1998-067YE","EPOCH":"2026-04-05T20:37:17.819328","MEAN_MOTION":15.55534164,"ECCENTRICITY":0.0009334,"INCLINATION":51.6303,"RA_OF_ASC_NODE":296.3413,"ARG_OF_PERICENTER":258.5898,"MEAN_ANOMALY":101.4045,"EPHEMERIS_TYPE":0,"CLASSIFICATION_TYPE":"U","NORAD_CAT_ID":67688,"ELEMENT_SET_NO":999,"REV_AT_EPOCH":893,"BSTAR":0.00077581,"MEAN_MOTION_DOT":0.00054045,"MEAN_MOTION_DDOT":0},{"OBJECT_NAME":"CREW DRAGON 12","OBJECT_ID":"2026-031A","EPOCH":"2026-04-05T19:28:26.281920","MEAN_MOTION":15.48791307,"ECCENTRICITY":0.0006355,"INCLINATION":51.6329,"RA_OF_ASC_NODE":298.2672,"ARG_OF_PERICENTER":276.3215,"MEAN_ANOMALY":83.7049,"EPHEMERIS_TYPE":0,"CLASSIFICATION_TYPE":"U","NORAD_CAT_ID":67796,"ELEMENT_SET_NO":999,"REV_AT_EPOCH":56052,"BSTAR":0.0001599,"MEAN_MOTION_DOT":8.309e-5,"MEAN_MOTION_DDOT":0},{"OBJECT_NAME":"PROGRESS-MS 33","OBJECT_ID":"2026-058A","EPOCH":"2026-04-05T19:28:26.281920","MEAN_MOTION":15.48791307,"ECCENTRICITY":0.0006355,"INCLINATION":51.6329,"RA_OF_ASC_NODE":298.2672,"ARG_OF_PERICENTER":276.3215,"MEAN_ANOMALY":83.7049,"EPHEMERIS_TYPE":0,"CLASSIFICATION_TYPE":"U","NORAD_CAT_ID":68319,"ELEMENT_SET_NO":999,"REV_AT_EPOCH":203,"BSTAR":0.0001599,"MEAN_MOTION_DOT":8.309e-5,"MEAN_MOTION_DDOT":0}]
